{"fetched_at":"2026-07-14T06:34:25.665Z","source":"https://celestrak.org/NORAD/elements/gp.php?GROUP=qianfan&FORMAT=JSON","constellation":"qianfan","records":[{"OBJECT_NAME":"QIANFAN-129","OBJECT_ID":"2026-104C","EPOCH":"2026-07-13T16:06:57.242304","CLASSIFICATION_TYPE":"U","MEAN_MOTION":13.53827463,"ECCENTRICITY":0.0014206,"INCLINATION":88.9892,"RA_OF_ASC_NODE":338.7428,"ARG_OF_PERICENTER":31.1354,"MEAN_ANOMALY":329.0638,"EPHEMERIS_TYPE":0,"NORAD_CAT_ID":69075,"ELEMENT_SET_NO":999,"REV_AT_EPOCH":874,"BSTAR":-3.0526,"MEAN_MOTION_DOT":-0.01918386,"MEAN_MOTION_DDOT":0},{"OBJECT_NAME":"QIANFAN-130","OBJECT_ID":"2026-104D","EPOCH":"2026-07-13T17:22:29.127936","CLASSIFICATION_TYPE":"U","MEAN_MOTION":13.49429781,"ECCENTRICITY":0.0012949,"INCLINATION":88.9893,"RA_OF_ASC_NODE":338.7877,"ARG_OF_PERICENTER":10.5799,"MEAN_ANOMALY":349.5621,"EPHEMERIS_TYPE":0,"NORAD_CAT_ID":69076,"ELEMENT_SET_NO":999,"REV_AT_EPOCH":872,"BSTAR":-3.2039,"MEAN_MOTION_DOT":-0.0188185,"MEAN_MOTION_DDOT":0},{"OBJECT_NAME":"QIANFAN-131","OBJECT_ID":"2026-104E","EPOCH":"2026-07-13T18:50:18.225888","CLASSIFICATION_TYPE":"U","MEAN_MOTION":13.54028351,"ECCENTRICITY":0.0009853,"INCLINATION":88.9881,"RA_OF_ASC_NODE":338.7572,"ARG_OF_PERICENTER":49.3563,"MEAN_ANOMALY":310.8445,"EPHEMERIS_TYPE":0,"NORAD_CAT_ID":69077,"ELEMENT_SET_NO":999,"REV_AT_EPOCH":874,"BSTAR":-2.8594,"MEAN_MOTION_DOT":-0.01809522,"MEAN_MOTION_DDOT":0},{"OBJECT_NAME":"QIANFAN-132","OBJECT_ID":"2026-104F","EPOCH":"2026-07-13T17:35:20.903712","CLASSIFICATION_TYPE":"U","MEAN_MOTION":13.50872099,"ECCENTRICITY":0.0009405,"INCLINATION":88.9888,"RA_OF_ASC_NODE":338.8073,"ARG_OF_PERICENTER":14.1743,"MEAN_ANOMALY":345.967,"EPHEMERIS_TYPE":0,"NORAD_CAT_ID":69078,"ELEMENT_SET_NO":999,"REV_AT_EPOCH":871,"BSTAR":-3.3112,"MEAN_MOTION_DOT":-0.02002147,"MEAN_MOTION_DDOT":0},{"OBJECT_NAME":"QIANFAN-133","OBJECT_ID":"2026-104G","EPOCH":"2026-07-13T19:34:29.766720","CLASSIFICATION_TYPE":"U","MEAN_MOTION":13.57837907,"ECCENTRICITY":0.0009952,"INCLINATION":88.9895,"RA_OF_ASC_NODE":338.7646,"ARG_OF_PERICENTER":13.7242,"MEAN_ANOMALY":346.4182,"EPHEMERIS_TYPE":0,"NORAD_CAT_ID":69079,"ELEMENT_SET_NO":999,"REV_AT_EPOCH":873,"BSTAR":-0.000014612,"MEAN_MOTION_DOT":2e-8,"MEAN_MOTION_DDOT":0},{"OBJECT_NAME":"QIANFAN-134","OBJECT_ID":"2026-104H","EPOCH":"2026-07-13T21:13:06.011040","CLASSIFICATION_TYPE":"U","MEAN_MOTION":13.57810248,"ECCENTRICITY":0.0010704,"INCLINATION":88.9897,"RA_OF_ASC_NODE":338.7733,"ARG_OF_PERICENTER":9.5865,"MEAN_ANOMALY":350.5492,"EPHEMERIS_TYPE":0,"NORAD_CAT_ID":69080,"ELEMENT_SET_NO":999,"REV_AT_EPOCH":874,"BSTAR":0.000061433,"MEAN_MOTION_DOT":5.6e-7,"MEAN_MOTION_DDOT":0},{"OBJECT_NAME":"QIANFAN-135","OBJECT_ID":"2026-104J","EPOCH":"2026-07-13T20:20:37.341024","CLASSIFICATION_TYPE":"U","MEAN_MOTION":13.57847064,"ECCENTRICITY":0.0008515,"INCLINATION":88.9894,"RA_OF_ASC_NODE":338.7678,"ARG_OF_PERICENTER":18.1146,"MEAN_ANOMALY":342.0311,"EPHEMERIS_TYPE":0,"NORAD_CAT_ID":69081,"ELEMENT_SET_NO":999,"REV_AT_EPOCH":874,"BSTAR":0.0000027625,"MEAN_MOTION_DOT":1.4e-7,"MEAN_MOTION_DDOT":0},{"OBJECT_NAME":"QIANFAN-136","OBJECT_ID":"2026-104K","EPOCH":"2026-07-13T20:42:30.663360","CLASSIFICATION_TYPE":"U","MEAN_MOTION":13.57857624,"ECCENTRICITY":0.001137,"INCLINATION":88.9894,"RA_OF_ASC_NODE":338.7697,"ARG_OF_PERICENTER":13.5284,"MEAN_ANOMALY":346.6174,"EPHEMERIS_TYPE":0,"NORAD_CAT_ID":69082,"ELEMENT_SET_NO":999,"REV_AT_EPOCH":874,"BSTAR":0.000045803,"MEAN_MOTION_DOT":4.5e-7,"MEAN_MOTION_DDOT":0},{"OBJECT_NAME":"QIANFAN-137","OBJECT_ID":"2026-104L","EPOCH":"2026-07-13T16:44:32.584704","CLASSIFICATION_TYPE":"U","MEAN_MOTION":13.62722613,"ECCENTRICITY":0.0013288,"INCLINATION":88.9896,"RA_OF_ASC_NODE":338.673,"ARG_OF_PERICENTER":4.58,"MEAN_ANOMALY":355.5477,"EPHEMERIS_TYPE":0,"NORAD_CAT_ID":69083,"ELEMENT_SET_NO":999,"REV_AT_EPOCH":878,"BSTAR":-2.6245,"MEAN_MOTION_DOT":-0.01901064,"MEAN_MOTION_DDOT":0},{"OBJECT_NAME":"QIANFAN-138","OBJECT_ID":"2026-104M","EPOCH":"2026-07-13T17:10:46.979328","CLASSIFICATION_TYPE":"U","MEAN_MOTION":13.53440473,"ECCENTRICITY":0.0006693,"INCLINATION":88.9884,"RA_OF_ASC_NODE":338.7844,"ARG_OF_PERICENTER":56.8411,"MEAN_ANOMALY":303.3382,"EPHEMERIS_TYPE":0,"NORAD_CAT_ID":69084,"ELEMENT_SET_NO":999,"REV_AT_EPOCH":872,"BSTAR":-2.9066,"MEAN_MOTION_DOT":-0.01821296,"MEAN_MOTION_DDOT":0},{"OBJECT_NAME":"QIANFAN-139","OBJECT_ID":"2026-104N","EPOCH":"2026-07-13T19:12:43.399584","CLASSIFICATION_TYPE":"U","MEAN_MOTION":13.57844273,"ECCENTRICITY":0.000869,"INCLINATION":88.9892,"RA_OF_ASC_NODE":338.7612,"ARG_OF_PERICENTER":17.6158,"MEAN_ANOMALY":342.5297,"EPHEMERIS_TYPE":0,"NORAD_CAT_ID":69085,"ELEMENT_SET_NO":999,"REV_AT_EPOCH":874,"BSTAR":0.000015868,"MEAN_MOTION_DOT":2.4e-7,"MEAN_MOTION_DDOT":0},{"OBJECT_NAME":"QIANFAN-140","OBJECT_ID":"2026-104P","EPOCH":"2026-07-13T18:58:42.676608","CLASSIFICATION_TYPE":"U","MEAN_MOTION":13.57832151,"ECCENTRICITY":0.0007988,"INCLINATION":88.9894,"RA_OF_ASC_NODE":338.7609,"ARG_OF_PERICENTER":16.8217,"MEAN_ANOMALY":343.3202,"EPHEMERIS_TYPE":0,"NORAD_CAT_ID":69086,"ELEMENT_SET_NO":999,"REV_AT_EPOCH":874,"BSTAR":0.0000017142,"MEAN_MOTION_DOT":1.3e-7,"MEAN_MOTION_DDOT":0},{"OBJECT_NAME":"QIANFAN-141","OBJECT_ID":"2026-104Q","EPOCH":"2026-07-13T20:10:50.399040","CLASSIFICATION_TYPE":"U","MEAN_MOTION":13.6271025,"ECCENTRICITY":0.0008254,"INCLINATION":88.9897,"RA_OF_ASC_NODE":338.7312,"ARG_OF_PERICENTER":14.5958,"MEAN_ANOMALY":345.5436,"EPHEMERIS_TYPE":0,"NORAD_CAT_ID":69087,"ELEMENT_SET_NO":999,"REV_AT_EPOCH":876,"BSTAR":0.0000013223,"MEAN_MOTION_DOT":1.3e-7,"MEAN_MOTION_DDOT":0},{"OBJECT_NAME":"QIANFAN-142","OBJECT_ID":"2026-104R","EPOCH":"2026-07-13T17:52:30.580032","CLASSIFICATION_TYPE":"U","MEAN_MOTION":13.57414006,"ECCENTRICITY":0.0008489,"INCLINATION":88.9883,"RA_OF_ASC_NODE":338.7361,"ARG_OF_PERICENTER":8.2753,"MEAN_ANOMALY":351.854,"EPHEMERIS_TYPE":0,"NORAD_CAT_ID":69088,"ELEMENT_SET_NO":999,"REV_AT_EPOCH":875,"BSTAR":-3.1774,"MEAN_MOTION_DOT":-0.02121656,"MEAN_MOTION_DDOT":0},{"OBJECT_NAME":"QIANFAN-143","OBJECT_ID":"2026-104S","EPOCH":"2026-07-13T20:13:02.342208","CLASSIFICATION_TYPE":"U","MEAN_MOTION":13.57826528,"ECCENTRICITY":0.0010146,"INCLINATION":88.9899,"RA_OF_ASC_NODE":338.7311,"ARG_OF_PERICENTER":10.7996,"MEAN_ANOMALY":349.3375,"EPHEMERIS_TYPE":0,"NORAD_CAT_ID":69089,"ELEMENT_SET_NO":999,"REV_AT_EPOCH":876,"BSTAR":0.000011234,"MEAN_MOTION_DOT":2e-7,"MEAN_MOTION_DDOT":0},{"OBJECT_NAME":"QIANFAN-144","OBJECT_ID":"2026-104T","EPOCH":"2026-07-13T17:23:39.122304","CLASSIFICATION_TYPE":"U","MEAN_MOTION":13.52618988,"ECCENTRICITY":0.0015046,"INCLINATION":88.9885,"RA_OF_ASC_NODE":338.7494,"ARG_OF_PERICENTER":14.3836,"MEAN_ANOMALY":345.7742,"EPHEMERIS_TYPE":0,"NORAD_CAT_ID":69090,"ELEMENT_SET_NO":999,"REV_AT_EPOCH":874,"BSTAR":-3.3517,"MEAN_MOTION_DOT":-0.02078707,"MEAN_MOTION_DDOT":0}]}
