QIANFAN-129             
1 69075U 26104C   26194.67149586 -.01918386  00000+0 -30526+1 0  9991
2 69075  88.9892 338.7428 0014206  31.1354 329.0638 13.53827463  8740
QIANFAN-130             
1 69076U 26104D   26194.72394824 -.01881850  00000+0 -32039+1 0  9991
2 69076  88.9893 338.7877 0012949  10.5799 349.5621 13.49429781  8729
QIANFAN-131             
1 69077U 26104E   26194.78493317 -.01809522  00000+0 -28594+1 0  9992
2 69077  88.9881 338.7572 0009853  49.3563 310.8445 13.54028351  8749
QIANFAN-132             
1 69078U 26104F   26194.73288083 -.02002147  00000+0 -33112+1 0  9991
2 69078  88.9888 338.8073 0009405  14.1743 345.9670 13.50872099  8715
QIANFAN-133             
1 69079U 26104G   26194.81562230  .00000002  00000+0 -14612-4 0  9993
2 69079  88.9895 338.7646 0009952  13.7242 346.4182 13.57837907  8737
QIANFAN-134             
1 69080U 26104H   26194.88409735  .00000056  00000+0  61433-4 0  9993
2 69080  88.9897 338.7733 0010704   9.5865 350.5492 13.57810248  8749
QIANFAN-135             
1 69081U 26104J   26194.84765441  .00000014  00000+0  27625-5 0  9999
2 69081  88.9894 338.7678 0008515  18.1146 342.0311 13.57847064  8742
QIANFAN-136             
1 69082U 26104K   26194.86285490  .00000045  00000+0  45803-4 0  9994
2 69082  88.9894 338.7697 0011370  13.5284 346.6174 13.57857624  8749
QIANFAN-137             
1 69083U 26104L   26194.69759936 -.01901064  00000+0 -26245+1 0  9996
2 69083  88.9896 338.6730 0013288   4.5800 355.5477 13.62722613  8787
QIANFAN-138             
1 69084U 26104M   26194.71582152 -.01821296  00000+0 -29066+1 0  9996
2 69084  88.9884 338.7844 0006693  56.8411 303.3382 13.53440473  8723
QIANFAN-139             
1 69085U 26104N   26194.80050231  .00000024  00000+0  15868-4 0  9999
2 69085  88.9892 338.7612 0008690  17.6158 342.5297 13.57844273  8740
QIANFAN-140             
1 69086U 26104P   26194.79077172  .00000013  00000+0  17142-5 0  9997
2 69086  88.9894 338.7609 0007988  16.8217 343.3202 13.57832151  8742
QIANFAN-141             
1 69087U 26104Q   26194.84086110  .00000013  00000+0  13223-5 0  9992
2 69087  88.9897 338.7312 0008254  14.5958 345.5436 13.62710250  8767
QIANFAN-142             
1 69088U 26104R   26194.74479838 -.02121656  00000+0 -31774+1 0  9992
2 69088  88.9883 338.7361 0008489   8.2753 351.8540 13.57414006  8759
QIANFAN-143             
1 69089U 26104S   26194.84238822  .00000020  00000+0  11234-4 0  9990
2 69089  88.9899 338.7311 0010146  10.7996 349.3375 13.57826528  8767
QIANFAN-144             
1 69090U 26104T   26194.72475836 -.02078707  00000+0 -33517+1 0  9992
2 69090  88.9885 338.7494 0015046  14.3836 345.7742 13.52618988  8743
